{"type":"FeatureCollection", "features": [
{"type":"Feature","geometry":{"type":"Polygon","coordinates":[[[-7.415755226022895,54.94437242214951],[-7.470831258999908,54.8452839160001],[-7.543384968999931,54.793090719000034],[-7.551704874999899,54.75469513000009],[-7.649683390999911,54.744876608000126],[-7.736603149999922,54.70746287100006],[-7.845898803999916,54.73102732300008],[-7.9066186119999315,54.66131581600003],[-7.707951474999902,54.60476330300004],[-7.887136596999937,54.53212473600003],[-8.002194172999879,54.543441875],[-8.05586014799988,54.49755320300004],[-8.168466711069868,54.46347695519728],[-8.079941364999911,54.380196025000046],[-8.002194172999879,54.35792348299999],[-7.942074757044395,54.29887328117695],[-7.8736490479999475,54.271055400000094],[-7.8369587809999075,54.204341126000074],[-7.704770466999889,54.200362041000076],[-7.609014037999941,54.13990061500006],[-7.502302204999864,54.12512115500003],[-7.439618692999943,54.146928610000074],[-7.316489273999906,54.11428045000004],[-7.263505411999887,54.14098582000004],[-7.229502319999938,54.20754506400003],[-7.145889851999925,54.25209014900004],[-7.209038452999891,54.293431296000065],[-7.1894695529998955,54.33569177100004],[-7.127027953999914,54.349758606000066],[-7.049254923999882,54.411511943000065],[-6.984090942999956,54.40308868500007],[-6.870014702316666,54.3260006031453],[-6.8239456789998485,54.232349752000076],[-6.74477738499985,54.18418731700008],[-6.648448442999893,54.17366497000005],[-6.672533732999909,54.06843210900003],[-6.605217158999977,54.04447525799999],[-6.478540405999894,54.06770863900003],[-6.3775129809999385,54.063264466000035],[-6.368107869999903,54.097319234000096],[-6.269886847999942,54.09788646000004],[-6.0405167309999115,54.036444403000075],[-5.911976691999939,54.09129466400003],[-5.866037563999953,54.18414948100008],[-5.862049933999913,54.230536200000074],[-5.6126195949999556,54.255560614000046],[-5.55304928299995,54.298529364000046],[-5.550526495999918,54.36542389500005],[-5.6614477199999556,54.37958405200004],[-5.638498501999948,54.46356842700004],[-5.706044074999909,54.542669989000046],[-5.671864386999914,54.57680898600006],[-5.575306769999941,54.528998114000046],[-5.547352667999917,54.48908112200007],[-5.576649542999917,54.402777411000045],[-5.52765865799995,54.34528229400007],[-5.46117102799991,54.39207591400003],[-5.433461066999939,54.46625397300005],[-5.4789119129999335,54.56948476800005],[-5.564967959469434,54.67230136674178],[-5.747954881999931,54.68040599200003],[-5.870470825996186,54.62280033715264],[-5.914336717999959,54.64683665600006],[-5.877914606552073,54.68231133064907],[-5.729318813999953,54.728501695000034],[-5.692096096638204,54.77045250651514],[-5.701975063999953,54.82469310100004],[-5.797596808999913,54.84454987200007],[-5.886341925999943,54.94082265800006],[-5.988270636999914,54.98867422100005],[-5.980984243751654,55.05565254786072],[-6.054351365999935,55.06513092700004],[-6.037098761999914,55.16791413000004],[-6.100982225999928,55.21238841400003],[-6.255848761999914,55.21088288000004],[-6.352894660999937,55.242621161000045],[-6.475941535999937,55.24868398600006],[-6.546117303803037,55.225188312670724],[-6.754505988999938,55.177801825000074],[-6.8384151966319076,55.17542479386695],[-6.946685350999928,55.195379950000074],[-7.017201300999943,55.07111237200007],[-7.065052863999938,55.043850002000056],[-7.149887797207094,55.048656634593186],[-7.247100389999957,55.06932200700004],[-7.355024372999935,55.04093088800006],[-7.405253865999896,55.003568827000024],[-7.415755226022895,54.94437242214951]]]},"properties":{"gu_a3":"NIR","geonunit":"Northern Ireland"}},
{"type":"Feature","geometry":{"type":"MultiPolygon","coordinates":[[[[-3.0845434239999463,53.25857168200008],[-3.122222459999932,53.26227448100008],[-3.33031165299991,53.35179271000004],[-3.360461948346862,53.3511462126516],[-3.5134593786516346,53.30892516871275],[-3.6022029289999296,53.28888580900008],[-3.7162979809999115,53.28693268400008],[-3.7688695949999556,53.31915924700007],[-4.000429834884765,53.24873277562198],[-4.151519334999932,53.22809479400007],[-4.234527147999927,53.16400788000004],[-4.340891079999949,53.11273834800005],[-4.358225063999953,53.02846914300005],[-4.523996548999946,52.944240627000056],[-4.596058722999942,52.92841217700004],[-4.755441860999952,52.80931224200003],[-4.648589647999927,52.79962799700007],[-4.500965949999909,52.82680898600006],[-4.406605597999942,52.89252350500004],[-4.228505011999914,52.919175523000035],[-4.129872199999909,52.88922760600008],[-4.125152147999927,52.77830638200004],[-4.048817511999914,52.721584377000056],[-4.122222459999932,52.62872955900008],[-4.1141251289999445,52.58860911700003],[-4.0531306629999335,52.54242584800005],[-3.9473363919999542,52.550877476014705],[-4.056548631999931,52.48786041900007],[-4.096262173999946,52.387884833000044],[-4.197132941999939,52.279282945000034],[-4.315825975999928,52.21629466400003],[-4.371245897999927,52.20929596600007],[-4.513824022999927,52.13568756700005],[-4.637521938999953,52.13849518400008],[-4.693763405982053,52.10726691371019],[-4.961740688999953,52.007513739000046],[-5.070220506999931,52.02635325700004],[-5.1195369129999335,51.95892975500004],[-5.288929816999939,51.91693756700005],[-5.2358292309999115,51.87103913000004],[-5.125884568999936,51.85602448100008],[-5.107085740999935,51.78807200700004],[-5.230132615999935,51.73004791900007],[-5.009917772999927,51.706366278000075],[-5.0511775379999335,51.65692780200004],[-5.021595831999946,51.61603424700007],[-4.941029425999943,51.59650299700007],[-4.8482966789999296,51.64630768400008],[-4.712310350999928,51.650091864000046],[-4.678212042999917,51.71743398600006],[-4.639261350630818,51.73316432537331],[-4.574208136999914,51.74115631700005],[-4.379261847999942,51.72687409100007],[-4.293690558999913,51.67226797100005],[-4.200550910999937,51.68585846600007],[-4.070546028276567,51.675970769835146],[-4.0912979809999115,51.639878648000035],[-4.2899063789999445,51.61701080900008],[-4.272450324999909,51.554754950000074],[-4.213368292999917,51.539129950000074],[-4.121652798999946,51.56598541900007],[-3.974598761999914,51.56297435100004],[-3.9623917309999115,51.61562734600005],[-3.8867895169999542,51.62140534100007],[-3.8326716789999296,51.61554596600007],[-3.751909071446505,51.53308124640239],[-3.748036261999914,51.50092194200005],[-3.6631973949999406,51.476223049000055],[-3.575311347940385,51.420440848066676],[-3.539173956999946,51.398504950000074],[-3.289418097999942,51.38422272300005],[-3.1848038399999155,51.39760976800005],[-3.1727188793727805,51.45311107041954],[-3.076506206196484,51.50775369088012],[-2.9746801419999542,51.56297435100004],[-2.943348761999914,51.54254791900007],[-2.7980961304321,51.56349853752744],[-2.6653539699999556,51.617254950000074],[-2.6837332769999307,51.72609446200005],[-2.648511069999927,51.82139951900007],[-2.7287434489999214,51.83838735000006],[-2.8735924889999183,51.929208679000055],[-2.952502400999947,51.90869313600007],[-3.0512496422571758,51.98350293850979],[-3.12375809699995,52.075685527000076],[-3.0870161539999117,52.14077199400003],[-3.1076608889999306,52.172708028000045],[-3.002525187999936,52.257018128000084],[-2.9574141191662875,52.34118317506346],[-3.0705572109999366,52.346573385000056],[-3.199309041999925,52.41251251300008],[-3.1903173419999575,52.46883982300005],[-3.0308438719999344,52.49690012600007],[-3.1240423179999084,52.56653411900004],[-3.0402231449999135,52.64671010400008],[-3.0097598879999055,52.71078888000005],[-2.961494099999925,52.733733216000076],[-3.1404298069999186,52.79634051100004],[-3.128357299999948,52.88000335700008],[-3.003920450999942,52.949844055000085],[-2.8479609779999464,52.937286682000035],[-2.7794897059999357,52.90057057700005],[-2.721508748999952,52.91816640300004],[-2.727731499009508,52.966540101244675],[-2.850544799999909,53.01717844700005],[-2.8973636479999527,53.102237854000066],[-2.9567974649999087,53.144603791000065],[-2.9135642099999473,53.18342152900004],[-3.0197592769999346,53.24669932100005],[-3.0845434239999463,53.25857168200008]]],[[[-4.098133917999917,53.30963776200008],[-4.203236456999946,53.298488674000055],[-4.276722785999937,53.40102773600006],[-4.425363735999952,53.42670319200005],[-4.553456183999913,53.40058014500005],[-4.571034308999913,53.275458075000074],[-4.496001756999931,53.18256256700005],[-4.343861456999946,53.132066148000035],[-4.2293595039999445,53.18219635600008],[-4.19554602799991,53.22028229400007],[-4.0980525379999335,53.25014883000006],[-4.098133917999917,53.30963776200008]]]]},"properties":{"gu_a3":"WLS","geonunit":"Wales"}},
{"type":"Feature","geometry":{"type":"MultiPolygon","coordinates":[[[[-2.9567974649999087,53.144603791000065],[-2.8973636479999527,53.102237854000066],[-2.850544799999909,53.01717844700005],[-2.727731499009508,52.966540101244675],[-2.721508748999952,52.91816640300004],[-2.7794897059999357,52.90057057700005],[-2.8479609779999464,52.937286682000035],[-3.003920450999942,52.949844055000085],[-3.128357299999948,52.88000335700008],[-3.1404298069999186,52.79634051100004],[-2.961494099999925,52.733733216000076],[-3.0097598879999055,52.71078888000005],[-3.0402231449999135,52.64671010400008],[-3.1240423179999084,52.56653411900004],[-3.0308438719999344,52.49690012600007],[-3.1903173419999575,52.46883982300005],[-3.199309041999925,52.41251251300008],[-3.0705572109999366,52.346573385000056],[-2.9574141191662875,52.34118317506346],[-3.002525187999936,52.257018128000084],[-3.1076608889999306,52.172708028000045],[-3.0870161539999117,52.14077199400003],[-3.12375809699995,52.075685527000076],[-3.0512496422571758,51.98350293850979],[-2.952502400999947,51.90869313600007],[-2.8735924889999183,51.929208679000055],[-2.7287434489999214,51.83838735000006],[-2.648511069999927,51.82139951900007],[-2.6837332769999307,51.72609446200005],[-2.6653539699999556,51.617254950000074],[-2.581695115999935,51.681708075000074],[-2.535490393242877,51.672949577354615],[-2.678751335909173,51.5313044140618],[-2.729387672254038,51.4962190368086],[-2.816395636999914,51.47361888200004],[-2.959584113999938,51.374253648000035],[-2.992176886999914,51.321926174000055],[-2.9995824859999516,51.23322174700007],[-3.057525193999936,51.20815664300005],[-3.38499915299991,51.18622467700004],[-3.434193488999938,51.20978424700007],[-3.7122385001554954,51.238328824697255],[-4.152333136999914,51.21161530200004],[-4.2098282539999445,51.17283763200004],[-4.234730597999942,51.05532461100006],[-4.337717251999948,50.99664948100008],[-4.526437954999949,51.014960028000075],[-4.548133371047116,50.922990902040056],[-4.5501195949999556,50.80955638200004],[-4.657297329999949,50.71112702000005],[-4.728138800999943,50.672308661000045],[-4.7924698559999115,50.59520091400009],[-4.895659959999932,50.585923570000034],[-4.921864386999914,50.55487702000005],[-5.025257941999939,50.52423737200007],[-5.0502823559999115,50.42869700700004],[-5.153675910999937,50.39948151200008],[-5.146473761999914,50.35529205900008],[-5.3148494129999335,50.253607489000046],[-5.3875626289999445,50.240301825000074],[-5.437977667999917,50.19432200700004],[-5.5109757149999155,50.21946849200003],[-5.684641079999949,50.16152578300006],[-5.70921790299991,50.13263580900008],[-5.705148891999954,50.05231354400007],[-5.57843990799995,50.054754950000074],[-5.540923631999931,50.11347077000005],[-5.47484290299991,50.13043854400007],[-5.323963995999918,50.089504299000055],[-5.210357225999928,49.96674225500004],[-5.0980525379999335,50.01439036700003],[-5.056507941999939,50.060614325000074],[-5.106068488999938,50.09511953300006],[-5.0203751289999445,50.19196198100008],[-4.849720831999946,50.23456452000005],[-4.800160285999937,50.22955963700008],[-4.752105272999927,50.33030833500004],[-4.659820115999935,50.322251695000034],[-4.4953507149999155,50.32843659100007],[-4.383697068999936,50.36749909100007],[-4.2523494129999335,50.35639069200005],[-4.203689363073636,50.45138839136115],[-4.186994470872729,50.4259677991736],[-4.1159818567733355,50.34787420653219],[-4.032948370999918,50.294907945000034],[-3.949940558999913,50.31899648600006],[-3.826324022999927,50.23419830900008],[-3.7180069649999155,50.21238841400009],[-3.6456192699999406,50.22601959800005],[-3.631988084999932,50.31232330900008],[-3.5269262359999516,50.34979889500005],[-3.5187308824011216,50.37621239089642],[-3.556263800999943,50.43211497600004],[-3.487456834999932,50.459418036000045],[-3.505366689187458,50.50815866579634],[-3.4672745429999168,50.585598049000055],[-3.4075414699999556,50.62128327000005],[-3.2955623039999296,50.63751862200007],[-3.2598363919999542,50.67454661700003],[-2.945570923759135,50.72581249914748],[-2.8648168609999516,50.73379140800006],[-2.6929418609999516,50.69281647300005],[-2.4835098949999406,50.59039948100008],[-2.435902472999942,50.63751862200007],[-2.1573380199999406,50.62051015800006],[-2.082183397999927,50.59784577000005],[-1.9837133449999556,50.59662506700005],[-1.9324845039999445,50.64443594000005],[-2.0025121739999463,50.681301174000055],[-2.0262177345608166,50.72510468053656],[-1.8968973611243314,50.71604205399757],[-1.7974579986877188,50.7231741652555],[-1.672922329999949,50.74005768400008],[-1.5611873039999296,50.71898021000004],[-1.5247289699999556,50.761053778000075],[-1.4049373039999296,50.774725653000075],[-1.323068813999953,50.82575104400007],[-1.4492984268808868,50.91205792923],[-1.3185929029999102,50.85691966400009],[-1.1511124339999128,50.78139883000006],[-1.0881241529999102,50.84975820500006],[-1.1030167309999115,50.79547760600008],[-1.0562231109999516,50.78302643400008],[-0.9948624339999128,50.84707265800006],[-0.9297989569999459,50.83999258000006],[-0.8636368479999419,50.802069403000075],[-0.9041235019999476,50.77187734600005],[-0.8128149079999503,50.73476797100005],[-0.7327367829999503,50.767279364000046],[-0.5689591139999379,50.802069403000075],[-0.39757239499994057,50.802069403000075],[-0.2696833979999269,50.831284898000035],[-0.20891535575907483,50.83009713717314],[0.01754804800009424,50.784857489000046],[0.12208092500009116,50.76080963700008],[0.2710067070000832,50.747381903000075],[0.3702905610000471,50.818793036000045],[0.6241968110000471,50.858710028000075],[0.7624617850000845,50.930894273000035],[0.86976504741898,50.92511993533674],[0.9798283210000704,50.91815827000005],[0.9664819670000497,50.98273346600007],[1.027598504000082,51.04165273600006],[1.1067000660000872,51.07636139500005],[1.1722111340000652,51.077378648000035],[1.3571883470000898,51.13100820500006],[1.4130965500000912,51.22174713700008],[1.3806258470000898,51.304754950000074],[1.4186304050000444,51.32965729400007],[1.4238387380000859,51.39207591400009],[1.1009220710000704,51.37323639500005],[0.9772241550000444,51.34918854400007],[0.7644149100000845,51.36440664300005],[0.7264103520000731,51.41901276200008],[0.6718856130000859,51.391058661000045],[0.5545353520000731,51.412176825000074],[0.6948348320000832,51.47703685100004],[0.5116250413585675,51.487675990141526],[0.3845040221428917,51.453087063017506],[0.45606530000009116,51.505560614000046],[0.5471718802780288,51.51772548973952],[0.6466577480000524,51.53534577000005],[0.7712508470000898,51.52826569200005],[0.828278547117236,51.54184848432004],[0.9244897800000444,51.588324286000045],[0.9518335300000444,51.67841217700004],[0.9300236340000652,51.74359772300005],[0.8869735040000819,51.782131252000056],[0.9887801440000885,51.83026764500005],[1.0372827480000524,51.78217194200005],[1.1354272800000444,51.78172435100004],[1.2192488940000885,51.811835028000075],[1.288259311000047,51.860581773000035],[1.1995548840000652,51.87767161700003],[1.2620548840000652,51.939154364000046],[1.078502234194006,51.95069497544677],[1.2751570970000898,51.976996161000045],[1.332286004000082,51.94009023600006],[1.5036727220000898,52.060980536000045],[1.582286004000082,52.08148834800005],[1.6308699880000859,52.19977448100008],[1.6305444670000497,52.27045319200005],[1.6836043630000859,52.32453034100007],[1.7711694670000497,52.48590729400007],[1.7475692070000832,52.53278229400007],[1.747243686000047,52.62518952000005],[1.6970320970000898,52.73102448100008],[1.6442163420000497,52.775824286000045],[1.3960067070000832,52.89142487200007],[1.2746688160000872,52.92918528900003],[0.9660750660000872,52.97443268400008],[0.5695906910000872,52.96930573100008],[0.48568769600007045,52.93349844000005],[0.4386499360000471,52.840725002000056],[0.37924238400006516,52.79083893400008],[0.2787867888626858,52.804961166665485],[0.17090905000009116,52.86212799700007],[0.022146030000044448,52.91258372600004],[0.08212324300006912,52.938666083000044],[0.16081790500004445,53.008978583000044],[0.32984459700008983,53.08649323100008],[0.3566186860000471,53.145738023000035],[0.34213300900006516,53.22630442900004],[0.21949303500008455,53.41950104400007],[0.15186608200008322,53.475816148000035],[0.021794993920319534,53.52470614107659],[-0.1984686882563148,53.62955992064841],[-0.3072403639999379,53.71426015800006],[-0.48631751199991413,53.69448476800005],[-0.5961807929999168,53.70807526200008],[-0.6992517376643614,53.69125558202182],[-0.6370336579999503,53.73200104400007],[-0.5444229809999115,53.70945872600004],[-0.4496964179999168,53.71430084800005],[-0.2956436839999128,53.738796291000085],[-0.2253311839999128,53.719916083000044],[-0.1300349599999322,53.64606354400007],[-0.04503333199994586,53.62555573100008],[0.014821811000047092,53.64325592700004],[0.13347415500004445,53.642645575000074],[-0.1511124339999128,53.899318752000056],[-0.2194718089999128,54.022772528000075],[-0.16392981699993925,54.08340078300006],[-0.07551021999995555,54.11212799700007],[-0.1998943585300325,54.1524495490002],[-0.2770889959999181,54.21775950700004],[-0.39757239499994057,54.269191799000055],[-0.43057206899993616,54.349310614000046],[-0.5204158189999362,54.42007070500006],[-0.5629776679999168,54.47736237200007],[-0.7788358218157327,54.55741107173249],[-1.1036270819999459,54.624660549000055],[-1.1925957704378005,54.61997948302602],[-1.1647029289999296,54.652777411000045],[-1.245347013213661,54.72539884377809],[-1.2967830069999309,54.77993398600006],[-1.3408202671026637,54.87268234432385],[-1.3603409499999088,54.91705963700008],[-1.3626602859999366,54.96478913000004],[-1.412912563999953,55.00031159100007],[-1.4555847178010033,55.06971169155124],[-1.5221248039999296,55.16746653900003],[-1.5209854809999115,55.229396877000056],[-1.570057745999918,55.28620026200008],[-1.5893448559999115,55.37653229400007],[-1.5849503249999088,55.483710028000075],[-1.6308487619999141,55.53729889500005],[-1.6308487619999141,55.58510976800005],[-1.768625454999949,55.641913153000075],[-1.8216853509999282,55.636419989000046],[-1.8778376939999362,55.69489166900007],[-2.0228572259999282,55.80548737200007],[-2.1628865149999115,55.72280141200008],[-2.242829955999923,55.649937643000044],[-2.327320922999945,55.62513295500008],[-2.27874507599995,55.58906280600007],[-2.1828852939999592,55.46240387000006],[-2.2113590089999207,55.43325836200006],[-2.325150512999926,55.39811838800006],[-2.359463663999918,55.362513326000055],[-2.462764851999907,55.36039459300008],[-2.625752319999947,55.262519430000054],[-2.685006726999916,55.19082746200007],[-2.850288091122536,55.11129498727382],[-2.953794311999957,55.041034241000034],[-3.015030883999941,55.05152455700005],[-3.0502913779999403,54.981510325000045],[-3.122792120999918,54.93268463700008],[-3.213612433999913,54.954413153000075],[-3.276519334999932,54.943426825000074],[-3.3879288399999155,54.88336823100008],[-3.439564581999946,54.76146067900004],[-3.500721808999913,54.72597890800006],[-3.5638321609999366,54.64276764500005],[-3.5903214179999168,54.56464264500005],[-3.6341853509999282,54.512884833000044],[-3.474273240999935,54.39350006700005],[-3.4041235019999476,54.31854889500005],[-3.407378709999932,54.27773672100005],[-3.306792772999927,54.19188060100004],[-3.206776495999918,54.20892975500004],[-3.240956183999913,54.11212799700007],[-3.117909308999913,54.10883209800005],[-3.0610245429999168,54.16193268400008],[-2.9842016269999476,54.15314362200007],[-2.8364261956124324,54.16760155246965],[-2.795969204999949,54.12518952000005],[-2.91820227799991,54.03432851800005],[-2.881988084999932,53.95652903900003],[-3.017567511999914,53.93195221600007],[-3.056385870999918,53.80304596600007],[-3.0214737620045184,53.745794989247315],[-2.948476257958822,53.70944616680276],[-3.0994766919999392,53.57200755400004],[-3.04822815123722,53.48102042805542],[-2.980824347999942,53.39276764500005],[-2.875903044793211,53.331184318190935],[-2.810332811999956,53.32172272300005],[-2.7755020822552865,53.299872136789645],[-2.8814998039999296,53.288397528000075],[-2.926413998695671,53.30481430317457],[-3.0121964179999168,53.41669342700004],[-3.058257615999935,53.434759833000044],[-3.157297329999949,53.40875885600008],[-3.185210740999935,53.37726471600007],[-3.0959437778830647,53.287143450010205],[-3.0845434239999463,53.25857168200008],[-3.0197592769999346,53.24669932100005],[-2.9135642099999473,53.18342152900004],[-2.9567974649999087,53.144603791000065]]],[[[0.9114689460000704,51.412176825000074],[0.7669376960000704,51.44794342700004],[0.7338973320000832,51.412176825000074],[0.7947697270000731,51.37055084800005],[0.9114689460000704,51.36440664300005],[0.9114689460000704,51.412176825000074]]],[[[-1.0827530589999128,50.713324286000045],[-1.2957657539999445,50.77317942900004],[-1.5059301419999542,50.70770905200004],[-1.4974259109999366,50.672308661000045],[-1.3155411449999406,50.589178778000075],[-1.1684464179999168,50.60346100500004],[-1.1647029289999296,50.64093659100007],[-1.0753067699999406,50.67853424700007],[-1.0827530589999128,50.713324286000045]]]]},"properties":{"gu_a3":"ENG","geonunit":"England"}},
{"type":"Feature","geometry":{"type":"MultiPolygon","coordinates":[[[[-2.0228572259999282,55.80548737200007],[-2.146839972999942,55.917303778000075],[-2.360395355201772,55.95268101153418],[-2.569406704999949,56.02448151200008],[-2.635121222999942,56.05805084800005],[-2.8028051419999542,56.06484609600005],[-2.9399307929999168,55.96930573100008],[-3.061193270766919,55.947842768369924],[-3.078236456999946,55.94684479400007],[-3.121815558999913,55.96930573100008],[-3.303456183999913,55.97760651200008],[-3.449758062784383,55.99677122970127],[-3.5053326890012877,56.0055953122884],[-3.656239386999914,56.010199286000045],[-3.739103157139537,56.05070465713965],[-3.8374731109999516,56.107376988069525],[-3.7464900379999335,56.072780666000085],[-3.420969204999949,56.02488841400003],[-3.1783748039999296,56.05809153900003],[-3.127552863999938,56.12287018400008],[-2.9643448559999115,56.20563385600008],[-2.7835994129999335,56.19196198100008],[-2.648345506999931,56.22870514500005],[-2.5768123039999296,56.28392161700003],[-2.6771541009999282,56.32843659100007],[-2.768625454999949,56.33234284100007],[-2.8216039699999556,56.376166083000044],[-2.8147680329999503,56.44041575700004],[-2.88499915299991,56.45799388200004],[-3.149566209999932,56.37555573100008],[-3.2624051580718576,56.352829830166385],[-3.1339005199999406,56.426947333000044],[-3.055653449999909,56.45213450700004],[-2.8193393834058043,56.4712984062964],[-2.7276505199999406,56.46954987200007],[-2.6997777989999463,56.50364817900004],[-2.530018683999913,56.58075592700004],[-2.480620897999927,56.62653229400007],[-2.4359431629999335,56.74038320500006],[-2.336089647999927,56.79083893400008],[-2.219878709999932,56.87262604400007],[-2.156158006999931,57.020697333000044],[-2.065256313999953,57.10053131700005],[-2.044667120999918,57.22650788000004],[-1.9802953769999476,57.31928131700005],[-1.849964972999942,57.39435455900008],[-1.7593481109999516,57.47357819200005],[-1.8294571609999366,57.61347077000005],[-1.9324845039999445,57.68235911700003],[-2.108143683999913,57.70498281500005],[-2.209950324999909,57.67552317900004],[-2.274322068999936,57.69383372600004],[-2.4328507149999155,57.66811758000006],[-2.658924933999913,57.69745514500005],[-2.821191779077367,57.702826239000046],[-2.9160863919999542,57.702826239000046],[-3.0786840489999463,57.66941966400003],[-3.2847387359999516,57.72044505400004],[-3.491851365999935,57.71312083500004],[-3.535755988999938,57.66193268400008],[-3.6848038399999155,57.65444570500006],[-3.754612099692133,57.62633262408303],[-3.8682755199999406,57.587876695000034],[-4.056019660999937,57.585150458000044],[-4.034982876999948,57.55687083500004],[-4.1948136059999115,57.49160390800006],[-4.207997199999909,57.552069403000075],[-4.118560350999928,57.592962958000044],[-4.096791144999941,57.65810781500005],[-4.201893683999913,57.674994208000044],[-4.077951626999948,57.73029205900008],[-3.988270636999914,57.69599030200004],[-3.790028449999909,57.83071523600006],[-3.914784308999913,57.80768463700008],[-3.9835098949999406,57.84235260600008],[-4.0399063789999445,57.81818268400008],[-4.1390681629999335,57.846869208000044],[-3.988270636999914,57.908270575000074],[-4.0301407539999445,57.953192450000074],[-3.8605850899999155,57.998928127000056],[-3.8275040359999366,58.04205963700008],[-3.7350154289999296,58.07217031500005],[-3.515288865999935,58.168402411000045],[-3.438099738999938,58.236029364000046],[-3.34984290299991,58.27610911700003],[-3.2205297519999476,58.305568752000056],[-3.0863337879999335,58.41421133000006],[-3.064442511999914,58.48297760600008],[-3.129261847999942,58.51264069200005],[-3.0191137359999516,58.640326239000046],[-3.1519262359999516,58.64126211100006],[-3.204090949999909,58.66111888200004],[-3.3508194649999155,58.62083567900004],[-3.532053188999953,58.60211823100008],[-3.659901495999918,58.62083567900004],[-3.8101293609999516,58.57306549700007],[-4.1605525379999335,58.562567450000074],[-4.2573136059999115,58.52798086100006],[-4.382394985999952,58.524644273000035],[-4.475493943999936,58.565619208000044],[-4.584950324999909,58.57416413000004],[-4.612131313999953,58.524644273000035],[-4.7280167309999115,58.577460028000075],[-4.859486456999946,58.61322663000004],[-4.988189256999931,58.62832265800006],[-5.0279841789999296,58.54409414300005],[-5.103667772999927,58.51422760600008],[-5.0501195949999556,58.45380280200004],[-5.146473761999914,58.394964911000045],[-5.173207160999937,58.353949286000045],[-5.096424933999913,58.27676015800006],[-5.31078040299991,58.243394273000035],[-5.39289303299995,58.24469635600008],[-5.275054490999935,58.15452708500004],[-5.300770636999914,58.07013580900008],[-5.413929816999939,58.05231354400007],[-5.292632615999935,57.98061758000006],[-5.204497850999928,57.960150458000044],[-5.197255011999914,57.91787344000005],[-5.297352667999917,57.908270575000074],[-5.366200324999909,57.943060614000046],[-5.487049933999913,57.85586172100005],[-5.6126195949999556,57.92877838700008],[-5.6535538399999155,57.89468008000006],[-5.807362433999913,57.84393952000005],[-5.790760870999918,57.69599030200004],[-5.762806769999941,57.633978583000044],[-5.66038977799991,57.544582424000055],[-5.8391820949999556,57.579291083000044],[-5.869699673999946,57.500881252000056],[-5.807769334999932,57.35492584800005],[-5.610910610999952,57.37140534100007],[-5.729318813999953,57.298163153000075],[-5.599436001999948,57.27924225500004],[-5.715646938999953,57.12006256700005],[-5.791127081999946,57.05927155200004],[-5.831695115999935,56.99713776200008],[-5.8522029289999296,56.90770091400003],[-5.735503709999932,56.89411041900007],[-5.913644985999952,56.763739325000074],[-6.1805313789999445,56.75462474200003],[-6.222767706999946,56.69546133000006],[-5.955555792999917,56.688666083000044],[-6.0034073559999115,56.61871979400007],[-5.8543595039999445,56.550482489000046],[-5.667388475999928,56.498480536000045],[-5.599598761999914,56.52903880400004],[-5.434396938999953,56.64288971600007],[-5.34015865799995,56.693060614000046],[-5.304517431434306,56.640160068932005],[-5.410878058999913,56.552069403000075],[-5.394276495999918,56.46548086100006],[-5.509632941999939,56.40062083500004],[-5.57258053299995,56.32807038000004],[-5.5980525379999335,56.25861237200007],[-5.547230597999942,56.24017975500004],[-5.522531704999949,56.16575755400004],[-5.550526495999918,56.10643138200004],[-5.659901495999918,56.02326080900008],[-5.586822068999936,56.01203034100007],[-5.696400519999941,55.91596100500004],[-5.64671790299991,55.78750234600005],[-5.581206834999932,55.75763580900008],[-5.721831834999932,55.56460195500006],[-5.715646938999953,55.44790273600006],[-5.7914119129999335,55.39862702000005],[-5.772287563999953,55.30125560100004],[-5.6399633449999556,55.303900458000044],[-5.557972785999937,55.33185455900008],[-5.5149633449999556,55.37368398600006],[-5.562082485999952,55.41986725500004],[-5.454986131999931,55.59194570500006],[-5.490101691999939,55.644598700000074],[-5.433461066999939,55.72101471600007],[-5.317779100999928,55.78302643400008],[-5.407215949999909,55.86627838700008],[-5.447621222999942,56.009426174000055],[-5.3686417309999115,56.009426174000055],[-5.228138800999943,56.12921784100007],[-5.204497850999928,56.11945221600007],[-5.313628709999932,56.01235586100006],[-5.3348282539999445,55.89667389500005],[-5.307118292999917,55.86041901200008],[-5.171538865999935,55.935532945000034],[-5.056752081999946,55.91030508000006],[-4.983143683999913,55.87103913000004],[-4.898019985999952,56.001166083000044],[-4.790150519999941,56.010199286000045],[-4.590618439389459,55.94151586216725],[-4.488626636411706,55.92565995204916],[-4.626825232076542,55.92975342383661],[-4.7857966789999296,55.95697663000004],[-4.872141079999949,55.937201239000046],[-4.888824022999927,55.865301825000074],[-4.861073370999918,55.756740627000056],[-4.920521613999938,55.70856354400007],[-4.7219945949999556,55.619208075000074],[-4.66624915299991,55.562201239000046],[-4.626332160999937,55.468410549000055],[-4.7492569649999155,55.413763739000046],[-4.832508917999917,55.33112213700008],[-4.882394985999952,55.21857330900008],[-5.007801886999914,55.14118073100008],[-5.0496720039999445,55.04897695500006],[-5.032500779999907,54.99371979400007],[-5.105213995999918,55.02619049700007],[-5.170806443999936,55.008693752000056],[-5.175526495999918,54.91461823100008],[-5.1282445949999556,54.848944403000075],[-4.954701300999943,54.728501695000034],[-4.953684048999946,54.81000397300005],[-4.859120245999918,54.86627838700008],[-4.596669074999909,54.77529531500005],[-4.505604620999918,54.70465729400007],[-4.405262824999909,54.682074286000045],[-4.348133917999917,54.70197174700007],[-4.347645636999914,54.80731842700004],[-4.426503058999913,54.86945221600007],[-4.2397354809999115,54.843003648000035],[-4.122954881999931,54.77301666900007],[-3.9641820949999556,54.771918036000045],[-3.823841925999943,54.82469310100004],[-3.8443090489999463,54.86627838700008],[-3.7176407539999445,54.880845445000034],[-3.598378058999913,54.87799713700008],[-3.583607550999943,54.968085028000075],[-3.453846808999913,54.981756903000075],[-3.1354060539999296,54.968085028000075],[-3.0502913779999403,54.981510325000045],[-3.015030883999941,55.05152455700005],[-2.953794311999957,55.041034241000034],[-2.850288091122536,55.11129498727382],[-2.685006726999916,55.19082746200007],[-2.625752319999947,55.262519430000054],[-2.462764851999907,55.36039459300008],[-2.359463663999918,55.362513326000055],[-2.325150512999926,55.39811838800006],[-2.2113590089999207,55.43325836200006],[-2.1828852939999592,55.46240387000006],[-2.27874507599995,55.58906280600007],[-2.327320922999945,55.62513295500008],[-2.242829955999923,55.649937643000044],[-2.1628865149999115,55.72280141200008],[-2.0228572259999282,55.80548737200007]]],[[[-5.070790167999917,55.50934479400007],[-5.159982876999948,55.676214911000045],[-5.2631729809999115,55.72284577000005],[-5.355213995999918,55.68960195500006],[-5.39289303299995,55.646551825000074],[-5.3890681629999335,55.59023672100005],[-5.345692511999914,55.55027903900003],[-5.345692511999914,55.48265208500004],[-5.263091600999928,55.44721100500004],[-5.1635636059999115,55.434881903000075],[-5.078236456999946,55.45530833500004],[-5.070790167999917,55.50934479400007]]],[[[-5.029774542999917,55.74949778900003],[-5.021839972999942,55.80560944200005],[-5.0809220039999445,55.87958405200004],[-5.139637824999909,55.84198639500005],[-5.115589972999942,55.784369208000044],[-5.029774542999917,55.74949778900003]]],[[[-6.030384894999941,55.72907135600008],[-6.099232550999943,55.80101146000004],[-6.120228644999941,55.92942942900004],[-6.229074673999946,55.89728424700007],[-6.409087693999936,55.86359284100007],[-6.452788865999935,55.84088776200008],[-6.448638475999928,55.77684153900003],[-6.493234829999949,55.73924388200004],[-6.462961391999954,55.67446523600006],[-6.386586066999939,55.722316799000055],[-6.3209529289999296,55.73346588700008],[-6.215321417999917,55.626654364000046],[-6.105458136999914,55.64020416900007],[-6.023508266999954,55.68187083500004],[-6.030384894999941,55.72907135600008]]],[[[-5.797596808999913,56.112616278000075],[-5.924427863999938,56.055975653000075],[-5.9832657539999445,56.00885651200008],[-5.997425910999937,55.95172760600008],[-6.075184699999909,55.91596100500004],[-6.062408006999931,55.809475002000056],[-5.962066209999932,55.804754950000074],[-5.740223761999914,56.07648346600007],[-5.797596808999913,56.112616278000075]]],[[[-6.81859290299991,56.53782786700003],[-6.989898240999935,56.50364817900004],[-6.965199347999942,56.459865627000056],[-6.743316209999932,56.51780833500004],[-6.81859290299991,56.53782786700003]]],[[[-5.688303188999953,56.434800523000035],[-5.721831834999932,56.49005768400008],[-5.8522029289999296,56.52415599200003],[-5.952137824999909,56.52415599200003],[-6.058257615999935,56.64020416900007],[-6.1907445949999556,56.64492422100005],[-6.288441535999937,56.60797760600008],[-6.288482225999928,56.53229401200008],[-6.194935675999943,56.52334219000005],[-6.127430792999917,56.47435130400004],[-6.203236456999946,56.38031647300005],[-6.186634894999941,56.331244208000044],[-6.3354386059999115,56.34454987200007],[-6.327504035999937,56.27724844000005],[-6.146962042999917,56.28392161700003],[-5.914784308999913,56.33551666900007],[-5.848215298999946,56.31362539300005],[-5.7199600899999155,56.352769273000035],[-5.688303188999953,56.434800523000035]]],[[[-6.325184699999909,57.058579820000034],[-6.4554744129999335,57.003973700000074],[-6.303618943999936,56.94399648600006],[-6.243234829999949,57.010199286000045],[-6.325184699999909,57.058579820000034]]],[[[-6.564116990999935,57.346584377000056],[-6.478871222999942,57.38190338700008],[-6.4164119129999335,57.33454010600008],[-6.482167120999918,57.311835028000075],[-6.318348761999914,57.161037502000056],[-6.023508266999954,57.195746161000045],[-5.961822068999936,57.14215729400007],[-6.030384894999941,57.044907945000034],[-5.918853318999936,57.050116278000075],[-5.800363735999952,57.12372467700004],[-5.782053188999953,57.16624583500004],[-5.6909073559999115,57.189520575000074],[-5.647368943999936,57.26463450700004],[-5.795806443999936,57.27179596600007],[-5.90062415299991,57.24290599200003],[-6.106597459999932,57.323472398000035],[-6.152495897999927,57.41754791900007],[-6.1360570949999556,57.46133047100005],[-6.153879360999952,57.589544989000046],[-6.314279751999948,57.69916413000004],[-6.415679490999935,57.645819403000075],[-6.3719376289999445,57.591864325000074],[-6.372954881999931,57.53156159100007],[-6.464914516999954,57.51251862200007],[-6.564116990999935,57.55882396000004],[-6.6312556629999335,57.49359772300005],[-6.706450975999928,57.510931708000044],[-6.714751756999931,57.376613674000055],[-6.564116990999935,57.346584377000056]]],[[[-7.393950975999928,57.010199286000045],[-7.524322068999936,57.010199286000045],[-7.476551886999914,56.94188060100004],[-7.393950975999928,57.010199286000045]]],[[[-7.243763800999943,57.325506903000075],[-7.263579881999931,57.373928127000056],[-7.3530167309999115,57.40802643400008],[-7.4281306629999335,57.387600002000056],[-7.389719204999949,57.31195709800005],[-7.455433722999942,57.23672109600005],[-7.414418097999942,57.21625397300005],[-7.390695766999954,57.12905508000006],[-7.271066860999952,57.14793528900003],[-7.271066860999952,57.21625397300005],[-7.233225063999953,57.274318752000056],[-7.243763800999943,57.325506903000075]]],[[[-7.263579881999931,57.48309967700004],[-7.369618292999917,57.48932526200008],[-7.396148240999935,57.43398672100005],[-7.292062954999949,57.404730536000045],[-7.222035285999937,57.460923570000034],[-7.263579881999931,57.48309967700004]]],[[[-7.129383917999917,57.65289948100008],[-7.181711391999954,57.68854401200008],[-7.277902798999946,57.64956289300005],[-7.396555141999954,57.63532135600008],[-7.476551886999914,57.66193268400008],[-7.544829881999931,57.592962958000044],[-7.351226365999935,57.55369700700004],[-7.287464972999942,57.50877513200004],[-7.1575414699999556,57.511053778000075],[-7.133900519999941,57.538397528000075],[-7.1711319649999155,57.64142487200007],[-7.129383917999917,57.65289948100008]]],[[[-6.955148891999954,57.743841864000046],[-6.8391007149999155,57.81268952000005],[-6.660959438999953,57.88031647300005],[-6.651193813999953,57.923814195000034],[-6.537464972999942,57.92133209800005],[-6.352447068999936,58.03864166900007],[-6.3940323559999115,58.10179271000004],[-6.3178604809999115,58.26829661700003],[-6.188832160999937,58.34080638200004],[-6.1668595039999445,58.41950104400007],[-6.20539303299995,58.48126862200007],[-6.267404751999948,58.51203034100007],[-6.345611131999931,58.46320221600007],[-6.620676235999952,58.35073476800005],[-6.715565558999913,58.33966705900008],[-6.81859290299991,58.28510163000004],[-6.798451300999943,58.202378648000035],[-6.897084113999938,58.17210521000004],[-6.962025519999941,58.230169989000046],[-7.056060350999928,58.22565338700008],[-7.1127823559999115,58.18203359600005],[-7.1264542309999115,58.12396881700005],[-7.075550910999937,58.06224192900004],[-7.036284959999932,57.960638739000046],[-6.897084113999938,57.935614325000074],[-6.962269660999937,57.868841864000046],[-7.0793350899999155,57.81268952000005],[-6.955148891999954,57.743841864000046]]],[[[-3.248402472999942,58.792181708000044],[-3.1727188789999445,58.82005442900004],[-3.246083136999914,58.896185614000046],[-3.349354620999918,58.92853424700007],[-3.4301651679999168,58.87482330900008],[-3.248402472999942,58.792181708000044]]],[[[-2.7276505199999406,58.97089264500005],[-2.8647354809999115,58.97483958500004],[-3.01195227799991,59.01740143400008],[-3.0845434239999463,59.12799713700008],[-3.231068488999938,59.148423570000034],[-3.3238012359999516,59.12742747600004],[-3.3666886059999115,59.01609935100004],[-3.323231574999909,58.95718008000006],[-3.235340949999909,58.97256094000005],[-3.202788865999935,58.91592031500005],[-2.973622199999909,58.95380280200004],[-2.915028449999909,58.89911530200004],[-2.8393448559999115,58.88263580900008],[-2.7065323559999115,58.93244049700007],[-2.7276505199999406,58.97089264500005]]],[[[-3.004790818999936,59.12799713700008],[-2.977162238999938,59.163397528000075],[-3.049183722999942,59.19684479400007],[-3.1146541009999282,59.15835195500006],[-3.004790818999936,59.12799713700008]]],[[[-1.0970352859999366,60.41648997600004],[-1.2175186839999128,60.49799225500004],[-1.2950333319999459,60.492254950000074],[-1.336089647999927,60.533189195000034],[-1.2914119129999335,60.623114325000074],[-1.5484106109999516,60.53937409100007],[-1.438099738999938,60.46051666900007],[-1.3950089179999168,60.389960028000075],[-1.2842911449999406,60.36351146000004],[-1.3963516919999392,60.32184479400007],[-1.6573787099999322,60.30621979400007],[-1.6697485019999476,60.239569403000075],[-1.455433722999942,60.15619538000004],[-1.3576554029999102,60.24433014500005],[-1.2626033189999362,60.11505768400008],[-1.3759659499999088,59.908636786000045],[-1.2745662099999322,59.882066148000035],[-1.242990688999953,59.97687409100007],[-1.170074022999927,60.04596588700008],[-1.2022598949999406,60.08307526200008],[-1.1439509759999282,60.187567450000074],[-1.1379288399999155,60.290716864000046],[-1.0753067699999406,60.32094961100006],[-1.0970352859999366,60.41648997600004]]],[[[-0.9871720039999445,60.697699286000045],[-1.0921117829999503,60.73533763200004],[-1.1237686839999128,60.659816799000055],[-1.180043097999942,60.624660549000055],[-1.1677953769999476,60.530462958000044],[-1.0970352859999366,60.492254950000074],[-0.9797257149999155,60.656683661000045],[-0.9871720039999445,60.697699286000045]]],[[[-0.9046931629999335,60.684027411000045],[-0.8016658189999362,60.74481842700004],[-0.7718399729999419,60.83340078300006],[-0.8603409499999088,60.837551174000055],[-0.9261775379999335,60.78465403900003],[-0.9661759109999366,60.69017161700003],[-0.9046931629999335,60.684027411000045]]]]},"properties":{"gu_a3":"SCT","geonunit":"Scotland"}}
]}